NORAD_CAT_ID,OBJECT_NAME,OBJECT_TYPE,EPOCH,MEAN_MOTION,ECCENTRICITY,INCLINATION,RA_OF_ASC_NODE,ARG_OF_PERICENTER,MEAN_ANOMALY,BSTAR,MEAN_MOTION_DOT,MEAN_MOTION_DDOT,TLE_LINE0,TLE_LINE1,TLE_LINE2,SEMIMAJOR_AXIS,PERIOD,APOGEE,PERIGEE,DECAYED
54087.0,STARLINK-5184,PAYLOAD,2023-05-30 03:39:59,15.08824022,0.0001041,53.2157,208.5413,83.0898,277.0212,0.00016011,2.26e-05,0.0,0 STARLINK-5184,1 54087U 22136AN  23150.15277615  .00002260  00000-0  16011-3 0  9995,2 54087  53.2157 208.5413 0001041  83.0898 277.0212 15.08824022 34295,6917.929,95.439,540.514,539.074,0.0
54087.0,STARLINK-5184,PAYLOAD,2023-05-30 10:01:32,15.08836384,0.0001027,53.2157,207.3518,79.4242,280.6866,1.4192e-05,-6.2e-07,0.0,0 STARLINK-5184,1 54087U 22136AN  23150.41773315 -.00000062  00000-0  14192-4 0  9990,2 54087  53.2157 207.3518 0001027  79.4242 280.6866 15.08836384 33865,6917.891,95.438,540.467,539.046,0.0
54087.0,STARLINK-5184,PAYLOAD,2023-05-30 21:09:13,15.08841607,0.0001032,53.2159,205.2705,78.6564,281.4544,5.4964e-05,5.87e-06,0.0,0 STARLINK-5184,1 54087U 22136AN  23150.88140881  .00000587  00000-0  54964-4 0  9999,2 54087  53.2159 205.2705 0001032  78.6564 281.4544 15.08841607 33930,6917.875,95.437,540.454,539.027,0.0
54087.0,STARLINK-5184,PAYLOAD,2023-05-31 03:30:46,15.088439,0.0001023,53.2155,204.0807,78.0929,282.0177,7.335e-05,8.8e-06,0.0,0 STARLINK-5184,1 54087U 22136AN  23151.14636677  .00000880  00000-0  73350-4 0  9998,2 54087  53.2155 204.0807 0001023  78.0929 282.0177 15.08843900 34449,6917.868,95.437,540.441,539.026,0.0
54087.0,STARLINK-5184,PAYLOAD,2023-05-31 09:52:18,15.08847167,0.000107,53.2159,202.8923,73.183,286.9279,9.8037e-05,1.273e-05,0.0,0 STARLINK-5184,1 54087U 22136AN  23151.41132359  .00001273  00000-0  98037-4 0  9992,2 54087  53.2159 202.8923 0001070  73.1830 286.9279 15.08847167 34015,6917.858,95.437,540.464,538.983,0.0
54087.0,STARLINK-5184,PAYLOAD,2023-05-31 21:00:00,15.08846173,0.0001051,53.2161,200.8111,71.6406,288.47,8.6742e-05,1.093e-05,0.0,0 STARLINK-5184,1 54087U 22136AN  23151.87500283  .00001093  00000-0  86742-4 0  9997,2 54087  53.2161 200.8111 0001051  71.6406 288.4700 15.08846173 34085,6917.862,95.437,540.454,538.999,0.0
54087.0,STARLINK-5184,PAYLOAD,2023-06-01 09:43:05,15.08840719,0.000116,53.2163,198.4332,66.9149,293.1965,0.0001038,1.365e-05,0.0,0 STARLINK-5184,1 54087U 22136AN  23152.40492635  .00001365  00000-0  10380-3 0  9994,2 54087  53.2163 198.4332 0001160  66.9149 293.1965 15.08840719 34161,6917.878,95.438,540.546,538.941,0.0
54087.0,STARLINK-5184,PAYLOAD,2023-06-02 09:33:53,15.0883622,0.0001111,53.2158,193.9712,84.6801,275.4318,-4.9374e-05,-1.073e-05,0.0,0 STARLINK-5184,1 54087U 22136AN  23153.39853185 -.00001073  00000-0 -49374-4 0  9998,2 54087  53.2158 193.9712 0001111  84.6801 275.4318 15.08836220 34780,6917.892,95.438,540.526,538.988,0.0
54087.0,STARLINK-5184,PAYLOAD,2023-06-02 12:44:39,15.08837167,0.0001117,53.216,193.3763,84.543,275.569,-5.3651e-05,-1.141e-05,0.0,0 STARLINK-5184,1 54087U 22136AN  23153.53101175 -.00001141  00000-0 -53651-4 0  9998,2 54087  53.2160 193.3763 0001117  84.5430 275.5690 15.08837167 34332,6917.889,95.438,540.527,538.981,0.0
54087.0,STARLINK-5184,PAYLOAD,2023-06-03 09:24:40,15.0883698,0.0001107,53.2161,189.5105,83.2333,276.8786,-8.081e-06,-4.16e-06,0.0,0 STARLINK-5184,1 54087U 22136AN  23154.39213185 -.00000416  00000-0 -80810-5 0  9990,2 54087  53.2161 189.5105 0001107  83.2333 276.8786 15.08836980 34463,6917.89,95.438,540.52,538.989,0.0
54087.0,STARLINK-5184,PAYLOAD,2023-06-03 18:56:59,15.08836118,0.0001104,53.216,187.7265,78.3457,281.7659,1.1043e-05,-1.12e-06,0.0,0 STARLINK-5184,1 54087U 22136AN  23154.78957261 -.00000112  00000-0  11043-4 0  9996,2 54087  53.2160 187.7265 0001104  78.3457 281.7659 15.08836118 34522,6917.892,95.438,540.521,538.994,0.0
54087.0,STARLINK-5184,PAYLOAD,2023-06-04 01:18:31,15.08833601,0.0001086,53.216,186.5378,77.0341,283.0773,4.198e-05,3.8e-06,0.0,0 STARLINK-5184,1 54087U 22136AN  23155.05453420  .00000380  00000-0  41980-4 0  9994,2 54087  53.2160 186.5378 0001086  77.0341 283.0773 15.08833601 35034,6917.9,95.438,540.516,539.014,0.0
54087.0,STARLINK-5184,PAYLOAD,2023-06-04 10:50:50,15.08833494,0.0001088,53.2162,184.7536,78.3119,281.7995,7.0486e-05,8.34e-06,0.0,0 STARLINK-5184,1 54087U 22136AN  23155.45197501  .00000834  00000-0  70486-4 0  9990,2 54087  53.2162 184.7536 0001088  78.3119 281.7995 15.08833494 34626,6917.9,95.438,540.518,539.013,0.0
54087.0,STARLINK-5184,PAYLOAD,2023-06-04 18:47:46,15.08834153,0.0001086,53.2163,183.2668,79.4984,280.613,5.1382e-05,5.3e-06,0.0,0 STARLINK-5184,1 54087U 22136AN  23155.78317627  .00000530  00000-0  51382-4 0  9996,2 54087  53.2163 183.2668 0001086  79.4984 280.6130 15.08834153 34674,6917.898,95.438,540.515,539.012,0.0
54087.0,STARLINK-5184,PAYLOAD,2023-06-05 04:20:05,15.08836027,0.0001087,53.2164,181.4827,80.9419,279.1696,5.0219e-05,5.11e-06,0.0,0 STARLINK-5184,1 54087U 22136AN  23156.18061624  .00000511  00000-0  50219-4 0  9991,2 54087  53.2164 181.4827 0001087  80.9419 279.1696 15.08836027 35205,6917.893,95.438,540.51,539.006,0.0
54087.0,STARLINK-5184,PAYLOAD,2023-06-05 10:41:37,15.08837834,0.0001083,53.2164,180.2933,80.7034,279.4081,5.1029e-05,5.24e-06,0.0,0 STARLINK-5184,1 54087U 22136AN  23156.44557574  .00000524  00000-0  51029-4 0  9998,2 54087  53.2164 180.2933 0001083  80.7034 279.4081 15.08837834 34776,6917.887,95.438,540.501,539.003,0.0
54087.0,STARLINK-5184,PAYLOAD,2023-06-06 10:32:24,15.08840054,0.0001085,53.2163,175.8327,80.9095,279.202,4.7439e-05,4.67e-06,0.0,0 STARLINK-5184,1 54087U 22136AN  23157.43917547  .00000467  00000-0  47439-4 0  9994,2 54087  53.2163 175.8327 0001085  80.9095 279.2020 15.08840054 35391,6917.88,95.438,540.496,538.995,0.0
54087.0,STARLINK-5184,PAYLOAD,2023-06-07 10:23:11,15.08842858,0.0001058,53.2161,171.372,81.0434,279.0678,5.6993e-05,6.19e-06,0.0,0 STARLINK-5184,1 54087U 22136AN  23158.43277264  .00000619  00000-0  56993-4 0  9994,2 54087  53.2161 171.3720 0001058  81.0434 279.0678 15.08842858 35072,6917.872,95.437,540.469,539.005,0.0
54087.0,STARLINK-5184,PAYLOAD,2023-06-07 18:20:07,15.08841574,0.0001047,53.216,169.8852,80.2752,279.8359,4.1188e-05,3.68e-06,0.0,0 STARLINK-5184,1 54087U 22136AN  23158.76397347  .00000368  00000-0  41188-4 0  9996,2 54087  53.2160 169.8852 0001047  80.2752 279.8359 15.08841574 35596,6917.876,95.437,540.465,539.016,0.0
54087.0,STARLINK-5184,PAYLOAD,2023-06-08 07:03:12,15.08840578,0.0001058,53.2158,167.506,82.9041,277.2072,2.5258e-05,1.14e-06,0.0,0 STARLINK-5184,1 54087U 22136AN  23159.29389435  .00000114  00000-0  25258-4 0  9993,2 54087  53.2158 167.5060 0001058  82.9041 277.2072 15.08840578 35206,6917.879,95.438,540.476,539.012,0.0
54087.0,STARLINK-5184,PAYLOAD,2023-06-09 00:32:27,15.08840337,0.0001088,53.216,164.234,86.2457,273.866,4.5098e-06,-2.16e-06,0.0,0 STARLINK-5184,1 54087U 22136AN  23160.02253475 -.00000216  00000-0  45098-5 0  9999,2 54087  53.2160 164.2340 0001088  86.2457 273.8660 15.08840337 35786,6917.879,95.438,540.497,538.992,0.0
54087.0,STARLINK-5184,PAYLOAD,2023-06-09 06:53:59,15.08841188,0.0001098,53.2158,163.0451,83.176,276.9357,1.4636e-05,-5.5e-07,0.0,0 STARLINK-5184,1 54087U 22136AN  23160.28749384 -.00000055  00000-0  14636-4 0  9990,2 54087  53.2158 163.0451 0001098  83.1760 276.9357 15.08841188 35352,6917.877,95.437,540.501,538.982,0.0
54087.0,STARLINK-5184,PAYLOAD,2023-06-10 06:44:46,15.08837532,0.0001063,53.2159,158.5853,81.596,278.5153,2.517e-05,1.13e-06,0.0,0 STARLINK-5184,1 54087U 22136AN  23161.28109700  .00000113  00000-0  25170-4 0  9992,2 54087  53.2159 158.5853 0001063  81.5960 278.5153 15.08837532 35972,6917.888,95.438,540.488,539.018,0.0
54087.0,STARLINK-5184,PAYLOAD,2023-06-11 09:46:20,15.088373,0.0001073,53.2159,153.5305,79.9888,280.1226,3.4914e-05,2.68e-06,0.0,0 STARLINK-5184,1 54087U 22136AN  23162.40717964  .00000268  00000-0  34914-4 0  9991,2 54087  53.2159 153.5305 0001073  79.9888 280.1226 15.08837300 36143,6917.889,95.438,540.496,539.011,0.0
54087.0,STARLINK-5184,PAYLOAD,2023-06-11 16:07:52,15.08837112,0.0001079,53.2161,152.341,78.7692,281.3421,4.4938e-05,4.27e-06,0.0,0 STARLINK-5184,1 54087U 22136AN  23162.67214002  .00000427  00000-0  44938-4 0  9999,2 54087  53.2161 152.3410 0001079  78.7692 281.3421 15.08837112 35719,6917.889,95.438,540.501,539.008,0.0
54087.0,STARLINK-5184,PAYLOAD,2023-06-12 06:26:21,15.08837673,0.0001085,53.2161,149.6648,80.3096,279.8019,4.4327e-05,4.18e-06,0.0,0 STARLINK-5184,1 54087U 22136AN  23163.26830079  .00000418  00000-0  44327-4 0  9995,2 54087  53.2161 149.6648 0001085  80.3096 279.8019 15.08837673 35802,6917.888,95.438,540.503,539.002,0.0
54087.0,STARLINK-5184,PAYLOAD,2023-06-12 15:58:40,15.08836334,0.0001073,53.216,147.881,82.3209,277.7905,3.8079e-05,3.18e-06,0.0,0 STARLINK-5184,1 54087U 22136AN  23163.66574254  .00000318  00000-0  38079-4 0  9995,2 54087  53.2160 147.8810 0001073  82.3209 277.7905 15.08836334 36330,6917.892,95.438,540.499,539.014,0.0
54087.0,STARLINK-5184,PAYLOAD,2023-06-12 22:20:12,15.08835172,0.0001125,53.2164,146.6919,87.8297,272.2823,2.1995e-05,6.2e-07,0.0,0 STARLINK-5184,1 54087U 22136AN  23163.93070473  .00000062  00000-0  21995-4 0  9994,2 54087  53.2164 146.6919 0001125  87.8297 272.2823 15.08835172 35906,6917.895,95.438,540.538,538.982,0.0
54087.0,STARLINK-5184,PAYLOAD,2023-06-13 06:17:08,15.08836166,0.0001143,53.2166,145.2052,87.6482,272.4641,2.7205e-05,1.45e-06,0.0,0 STARLINK-5184,1 54087U 22136AN  23164.26190471  .00000145  00000-0  27205-4 0  9994,2 54087  53.2166 145.2052 0001143  87.6482 272.4641 15.08836166 35954,6917.892,95.438,540.548,538.966,0.0
54087.0,STARLINK-5184,PAYLOAD,2023-06-14 07:43:18,15.08839829,0.0001166,53.2163,140.4472,82.437,277.6754,3.5517e-05,2.77e-06,0.0,0 STARLINK-5184,1 54087U 22136AN  23165.32174444  .00000277  00000-0  35517-4 0  9995,2 54087  53.2163 140.4472 0001166  82.4370 277.6754 15.08839829 36589,6917.881,95.438,540.553,538.939,0.0
